STARLINK-2046           
1 47354U 21005F   26068.30178693  .00015243  00000+0  52507-3 0  9996
2 47354  53.1600  25.7636 0001182  90.9763 269.1373 15.30240663283515
2023-104A               
1 57424U 23104A   26065.78279804  .00015492  00000+0  48200-3 0  9993
2 57424  97.2792 135.5625 0009333 122.1915 238.0234 15.33350758146346
